OBJECT_NAME,OBJECT_ID,EPOCH,MEAN_MOTION,ECCENTRICITY,INCLINATION,RA_OF_ASC_NODE,ARG_OF_PERICENTER,MEAN_ANOMALY,EPHEMERIS_TYPE,CLASSIFICATION_TYPE,NORAD_CAT_ID,ELEMENT_SET_NO,REV_AT_EPOCH,BSTAR,MEAN_MOTION_DOT,MEAN_MOTION_DDOT
AMOS-4,2013-045A,2026-06-19T19:26:01.821120,1.00272190,.0002587,0.0123,296.8016,124.8554,202.8907,0,U,39237,999,4698,0,.2E-7,0
AEHF-3 (USA 246),2013-050A,2026-06-19T17:25:16.621248,1.00273228,.0087846,5.2994,67.1610,188.0170,149.8176,0,U,39256,999,4567,0,.22E-6,0
ASTRA 2E,2013-056A,2026-06-19T18:54:24.858144,1.00273813,.000278,0.0726,317.0659,144.8489,118.2106,0,U,39285,999,4644,0,.145E-5,0
FM-6,2013-058A,2026-06-19T17:27:23.916096,1.00270821,.000171,0.0356,52.4724,122.4129,238.6158,0,U,39360,999,4609,0,0,0
RADUGA-1M 3,2013-062A,2026-06-18T19:09:38.685888,1.00273348,.00018039,5.9627,72.3351,267.8367,249.2637,0,U,39375,999,4612,0,.144E-5,0
SES-8,2013-071A,2026-06-19T08:11:38.422752,1.00272140,.00026833,0.0203,292.6569,154.9053,37.9119,0,U,39460,999,4445,0,-.276E-5,0
INMARSAT 5-F1,2013-073A,2026-06-19T18:17:01.249728,1.00271381,.0000611,0.0163,25.3416,307.9135,271.6033,0,U,39476,999,4560,0,.22E-6,0
TKSAT-1 (TUPAC KATARI),2013-075A,2026-06-19T19:18:14.321952,1.00273227,.0002553,0.0272,185.4362,254.4824,30.4473,0,U,39481,999,4563,0,-.2E-5,0
EXPRESS-AM5,2013-077A,2026-06-19T06:41:56.065632,1.00270514,.00002468,0.0150,290.7568,50.0930,167.1627,0,U,39487,999,4638,0,-.286E-5,0
GSAT-14,2014-001A,2026-06-19T08:05:45.167712,1.00271213,.00008567,0.0422,95.8579,174.4907,192.6333,0,U,39498,999,4540,0,-.83E-6,0
THAICOM 6,2014-002A,2026-06-19T18:22:54.972192,1.00272290,.0004409,0.0724,107.3887,3.7677,151.0592,0,U,39500,999,4548,0,-.127E-5,0
TDRS 12,2014-004A,2026-06-19T20:52:38.420832,1.00266041,.000309,3.9804,19.1539,195.3817,325.6603,0,U,39504,999,4430,0,-.278E-5,0
ABS-2,2014-006A,2026-06-19T19:17:31.768224,1.00270977,.000379,0.0169,326.7221,106.8867,198.7059,0,U,39508,999,4530,0,-.91E-6,0
ATHENA-FIDUS,2014-006B,2026-06-19T13:03:21.208608,1.00273912,.00013417,0.0353,93.7243,0.4060,47.2836,0,U,39509,999,4511,0,.148E-5,0
TURKSAT 4A,2014-007A,2026-06-19T18:12:33.465024,1.00274180,.0001215,0.0680,287.9177,34.2647,260.9556,0,U,39522,999,4499,0,.14E-5,0
EXPRESS-AT1,2014-010A,2026-06-19T20:26:11.380704,1.00303889,.0003811,0.2657,85.5564,44.4778,147.2143,0,U,39612,999,4484,0,.16E-6,0
EXPRESS-AT2,2014-010B,2026-06-19T09:43:04.162656,1.00271145,.00003686,0.0164,350.9375,292.4926,185.9420,0,U,39613,999,4452,0,.73E-6,0
AMAZONAS 4A,2014-011A,2026-06-19T09:06:07.704576,1.00269408,.00039849,0.0546,175.8997,298.4121,215.8082,0,U,39616,999,4473,0,-.258E-5,0
ASTRA 5B,2014-011B,2026-06-19T18:33:38.680704,1.00268563,.0002089,0.0645,311.7480,114.0747,144.0785,0,U,39617,999,4469,0,.131E-5,0
IRNSS-1B,2014-017A,2026-06-19T18:16:25.595040,1.00277178,.0023151,28.9179,240.3593,189.6008,167.3236,0,U,39635,999,4481,0,.109E-5,0
LUCH-5V,2014-023A,2026-06-19T18:27:34.179840,1.00273433,.0001892,5.1398,69.7202,49.9743,159.9136,0,U,39727,999,4438,0,-.276E-5,0
KAZSAT-3,2014-023B,2026-06-19T19:07:29.529984,1.00273999,.0000327,0.0153,31.1388,31.8695,190.3838,0,U,39728,999,4248,0,.55E-6,0
EUTELSAT 3B,2014-030A,2026-06-19T18:49:38.806752,1.00271656,.0004038,0.0686,22.8389,63.9718,106.6817,0,U,39773,999,4409,0,.14E-6,0
ASIASAT 8 (AMOS-7),2014-046A,2026-06-19T19:49:38.954784,1.00272818,.0001373,0.0236,65.0430,20.6966,225.0244,0,U,40107,999,10217,0,-.339E-5,0
ASIASAT 6,2014-052A,2026-06-19T18:34:48.485856,1.00269729,.0000785,0.0366,83.1517,22.7653,200.6841,0,U,40141,999,4310,0,-.368E-5,0
OPTUS 10,2014-054A,2026-06-18T23:14:51.434304,1.00270780,.00019673,0.0781,50.4612,35.8039,325.6614,0,U,40146,999,4304,0,-.154E-5,0
MEASAT-3B,2014-054B,2026-06-19T17:38:38.593824,1.00270395,.0002963,0.0298,26.8562,62.5719,174.6844,0,U,40147,999,4293,0,-.247E-5,0
HIMAWARI-8,2014-060A,2026-06-19T18:27:50.283072,1.00270956,.000113,0.0163,46.0851,46.9314,232.5959,0,U,40267,999,4278,0,-.281E-5,0
IRNSS-1C,2014-061A,2026-06-19T18:59:25.062720,1.00268918,.0022682,6.5240,88.8821,2.7462,184.1889,0,U,40269,999,4271,0,-.168E-5,0
INTELSAT 30 (IS-30),2014-062A,2026-06-19T05:50:50.775072,1.00270952,.00012405,0.0281,53.7801,330.6226,235.7245,0,U,40271,999,681,0,-.157E-5,0
ARSAT 1,2014-062B,2026-06-19T09:06:45.145152,1.00270262,.00017382,0.0117,358.1505,84.7951,249.5311,0,U,40272,999,4264,0,-.266E-5,0
EUTELSAT 53A,2014-064A,2026-06-19T14:50:23.732736,1.00271761,.00009863,0.0181,325.4132,225.2170,352.8080,0,U,40277,999,4159,0,.92E-6,0
